[{"OBJECT_NAME":"STARLINK-5364","OBJECT_ID":"2023-015AU","EPOCH":"2026-03-09T09:43:42.168288","MEAN_MOTION":15.02533328,"ECCENTRICITY":0.00010022,"INCLINATION":43.0078,"RA_OF_ASC_NODE":314.3098,"ARG_OF_PERICENTER":282.5462,"MEAN_ANOMALY":77.5269,"EPHEMERIS_TYPE":0,"CLASSIFICATION_TYPE":"U","NORAD_CAT_ID":55491,"ELEMENT_SET_NO":999,"REV_AT_EPOCH":17086,"BSTAR":-4.0320208e-5,"MEAN_MOTION_DOT":-7.48e-6,"MEAN_MOTION_DDOT":0},{"OBJECT_NAME":"CZ-6A DEB","OBJECT_ID":"2022-151EM","EPOCH":"2026-03-09T21:12:10.844640","MEAN_MOTION":15.1479521,"ECCENTRICITY":0.00732342,"INCLINATION":98.809,"RA_OF_ASC_NODE":212.6624,"ARG_OF_PERICENTER":10.5605,"MEAN_ANOMALY":349.714,"EPHEMERIS_TYPE":0,"CLASSIFICATION_TYPE":"U","NORAD_CAT_ID":54413,"ELEMENT_SET_NO":999,"REV_AT_EPOCH":17915,"BSTAR":0.0020661814,"MEAN_MOTION_DOT":0.00041137,"MEAN_MOTION_DDOT":0}]
